{"type": "FeatureCollection", "features": [ {"type": "Feature", "properties": {"norad_id": 38212, "name": "COSMOS 2251 DEB", "group": "cosmos-2251-debris", "lat": 24.567968705312698, "lon": -126.51961602012699, "alt_km": 578.6638836778247, "timestamp": "2025-12-20T16:47:36.682786+00:00", "meta": {"OBJECT_NAME": "COSMOS 2251 DEB", "OBJECT_ID": "1993-036BTC", "EPOCH": "2025-12-19T04:21:29.490912", "MEAN_MOTION": 14.77722254, "ECCENTRICITY": 0.0092064, "INCLINATION": 74.0528, "RA_OF_ASC_NODE": 63.9673, "ARG_OF_PERICENTER": 129.0689, "MEAN_ANOMALY": 231.8724, "EPHEMERIS_TYPE": 0, "CLASSIFICATION_TYPE": "U", "NORAD_CAT_ID": 38212, "ELEMENT_SET_NO": 999, "REV_AT_EPOCH": 81405, "BSTAR": 0.00027193732, "MEAN_MOTION_DOT": 2.056e-05, "MEAN_MOTION_DDOT": 0}, "tle": {"line1": "1 38212U 93036BTC 25353.18159133  .00002056  00000+0  27194-3 0  9994", "line2": "2 38212  74.0528  63.9673 0092064 129.0689 231.8724 14.77722254814050"}}, "geometry": {"type": "Point", "coordinates": [-126.51961602012699, 24.567968705312698]}}, {"type": "Feature", "properties": {"norad_id": 38220, "name": "COSMOS 2251 DEB", "group": "cosmos-2251-debris", "lat": 23.84396634326433, "lon": 59.54699259883501, "alt_km": 582.872694204153, "timestamp": "2025-12-20T16:47:36.682797+00:00", "meta": {"OBJECT_NAME": "COSMOS 2251 DEB", "OBJECT_ID": "1993-036BTL", "EPOCH": "2025-12-19T21:23:19.109760", "MEAN_MOTION": 14.93308303, "ECCENTRICITY": 0.0005462, "INCLINATION": 74.0148, "RA_OF_ASC_NODE": 53.8959, "ARG_OF_PERICENTER": 25.3651, "MEAN_ANOMALY": 334.78, "EPHEMERIS_TYPE": 0, "CLASSIFICATION_TYPE": "U", "NORAD_CAT_ID": 38220, "ELEMENT_SET_NO": 999, "REV_AT_EPOCH": 71477, "BSTAR": 0.0017121, "MEAN_MOTION_DOT": 0.00017953, "MEAN_MOTION_DDOT": 0}, "tle": {"line1": "1 38220U 93036BTL 25353.89119340  .00017953  00000+0  17121-2 0  9997", "line2": "2 38220  74.0148  53.8959 0005462  25.3651 334.7800 14.93308303714774"}}, "geometry": {"type": "Point", "coordinates": [59.54699259883501, 23.84396634326433]}}, {"type": "Feature", "properties": {"norad_id": 38479, "name": "COSMOS 2251 DEB", "group": "cosmos-2251-debris", "lat": 24.830464174408025, "lon": 177.2155311920313, "alt_km": 782.0339638035039, "timestamp": "2025-12-20T16:47:36.682807+00:00", "meta": {"OBJECT_NAME": "COSMOS 2251 DEB", "OBJECT_ID": "1993-036BTP", "EPOCH": "2025-12-13T19:29:32.997408", "MEAN_MOTION": 14.3831318, "ECCENTRICITY": 0.0084157, "INCLINATION": 74.007, "RA_OF_ASC_NODE": 182.3013, "ARG_OF_PERICENTER": 291.0961, "MEAN_ANOMALY": 83.9532, "EPHEMERIS_TYPE": 0, "CLASSIFICATION_TYPE": "U", "NORAD_CAT_ID": 38479, "ELEMENT_SET_NO": 999, "REV_AT_EPOCH": 64703, "BSTAR": 0.0021939338, "MEAN_MOTION_DOT": 6.938e-05, "MEAN_MOTION_DDOT": 0}, "tle": {"line1": "1 38479U 93036BTP 25347.81218747  .00006938  00000+0  21939-2 0  9992", "line2": "2 38479  74.0070 182.3013 0084157 291.0961  83.9532 14.38313180647034"}}, "geometry": {"type": "Point", "coordinates": [177.2155311920313, 24.830464174408025]}}, {"type": "Feature", "properties": {"norad_id": 38481, "name": "COSMOS 2251 DEB", "group": "cosmos-2251-debris", "lat": 53.55478987239859, "lon": 150.82995124815972, "alt_km": 1074.3684939113245, "timestamp": "2025-12-20T16:47:36.682816+00:00", "meta": {"OBJECT_NAME": "COSMOS 2251 DEB", "OBJECT_ID": "1993-036BTR", "EPOCH": "2025-12-17T17:37:11.726400", "MEAN_MOTION": 13.94852214, "ECCENTRICITY": 0.02348213, "INCLINATION": 73.9324, "RA_OF_ASC_NODE": 358.9239, "ARG_OF_PERICENTER": 298.2644, "MEAN_ANOMALY": 59.4964, "EPHEMERIS_TYPE": 0, "CLASSIFICATION_TYPE": "U", "NORAD_CAT_ID": 38481, "ELEMENT_SET_NO": 999, "REV_AT_EPOCH": 59130, "BSTAR": 0.0012605173, "MEAN_MOTION_DOT": 2.103e-05, "MEAN_MOTION_DDOT": 0}, "tle": {"line1": "1 38481U 93036BTR 25351.73416350  .00002103  00000+0  12605-2 0  9991", "line2": "2 38481  73.9324 358.9239 0234821 298.2644  59.4964 13.94852214591302"}}, "geometry": {"type": "Point", "coordinates": [150.82995124815972, 53.55478987239859]}}, {"type": "Feature", "properties": {"norad_id": 38483, "name": "COSMOS 2251 DEB", "group": "cosmos-2251-debris", "lat": 57.53512247563189, "lon": 151.1947286339909, "alt_km": 714.1197595420454, "timestamp": "2025-12-20T16:47:36.682826+00:00", "meta": {"OBJECT_NAME": "COSMOS 2251 DEB", "OBJECT_ID": "1993-036BTT", "EPOCH": "2025-12-12T08:16:48.530496", "MEAN_MOTION": 14.28787654, "ECCENTRICITY": 0.01107994, "INCLINATION": 74.262, "RA_OF_ASC_NODE": 12.4521, "ARG_OF_PERICENTER": 118.0167, "MEAN_ANOMALY": 243.2246, "EPHEMERIS_TYPE": 0, "CLASSIFICATION_TYPE": "U", "NORAD_CAT_ID": 38483, "ELEMENT_SET_NO": 999, "REV_AT_EPOCH": 63472, "BSTAR": 0.0012977102, "MEAN_MOTION_DOT": 3.471e-05, "MEAN_MOTION_DDOT": 0}, "tle": {"line1": "1 38483U 93036BTT 25346.34500614  .00003471  00000+0  12977-2 0  9992", "line2": "2 38483  74.2620  12.4521 0110799 118.0167 243.2246 14.28787654634722"}}, "geometry": {"type": "Point", "coordinates": [151.1947286339909, 57.53512247563189]}}, {"type": "Feature", "properties": {"norad_id": 38486, "name": "COSMOS 2251 DEB", "group": "cosmos-2251-debris", "lat": -60.951890649642486, "lon": 158.01114710319132, "alt_km": 639.9550620030786, "timestamp": "2025-12-20T16:47:36.682837+00:00", "meta": {"OBJECT_NAME": "COSMOS 2251 DEB", "OBJECT_ID": "1993-036BTW", "EPOCH": "2025-12-19T21:49:44.280192", "MEAN_MOTION": 14.73429029, "ECCENTRICITY": 0.0030516, "INCLINATION": 73.9403, "RA_OF_ASC_NODE": 190.8021, "ARG_OF_PERICENTER": 334.2314, "MEAN_ANOMALY": 90.8371, "EPHEMERIS_TYPE": 0, "CLASSIFICATION_TYPE": "U", "NORAD_CAT_ID": 38486, "ELEMENT_SET_NO": 999, "REV_AT_EPOCH": 75540, "BSTAR": 0.0013432, "MEAN_MOTION_DOT": 8.756e-05, "MEAN_MOTION_DDOT": 0}, "tle": {"line1": "1 38486U 93036BTW 25353.90954028  .00008756  00000+0  13432-2 0  9995", "line2": "2 38486  73.9403 190.8021 0030516 334.2314  90.8371 14.73429029755403"}}, "geometry": {"type": "Point", "coordinates": [158.01114710319132, -60.951890649642486]}}, {"type": "Feature", "properties": {"norad_id": 38487, "name": "COSMOS 2251 DEB", "group": "cosmos-2251-debris", "lat": -70.99335920348724, "lon": -106.31033063602486, "alt_km": 514.3863280631276, "timestamp": "2025-12-20T16:47:36.682846+00:00", "meta": {"OBJECT_NAME": "COSMOS 2251 DEB", "OBJECT_ID": "1993-036BTX", "EPOCH": "2025-12-18T08:17:15.140832", "MEAN_MOTION": 15.17739234, "ECCENTRICITY": 0.00209744, "INCLINATION": 73.9753, "RA_OF_ASC_NODE": 22.0718, "ARG_OF_PERICENTER": 194.1031, "MEAN_ANOMALY": 165.9582, "EPHEMERIS_TYPE": 0, "CLASSIFICATION_TYPE": "U", "NORAD_CAT_ID": 38487, "ELEMENT_SET_NO": 999, "REV_AT_EPOCH": 66885, "BSTAR": 0.0016984027, "MEAN_MOTION_DOT": 0.00034604, "MEAN_MOTION_DDOT": 0}, "tle": {"line1": "1 38487U 93036BTX 25352.34531413  .00034604  00000+0  16984-2 0  9998", "line2": "2 38487  73.9753  22.0718 0020974 194.1031 165.9582 15.17739234668858"}}, "geometry": {"type": "Point", "coordinates": [-106.31033063602486, -70.99335920348724]}}, {"type": "Feature", "properties": {"norad_id": 39109, "name": "COSMOS 2251 DEB", "group": "cosmos-2251-debris", "lat": -72.22988690361306, "lon": 146.3951467273675, "alt_km": 630.4392735551282, "timestamp": "2025-12-20T16:47:36.682856+00:00", "meta": {"OBJECT_NAME": "COSMOS 2251 DEB", "OBJECT_ID": "1993-036BTY", "EPOCH": "2025-12-19T23:30:41.180256", "MEAN_MOTION": 14.70762004, "ECCENTRICITY": 0.005957, "INCLINATION": 74.0412, "RA_OF_ASC_NODE": 211.0292, "ARG_OF_PERICENTER": 312.7483, "MEAN_ANOMALY": 114.4468, "EPHEMERIS_TYPE": 0, "CLASSIFICATION_TYPE": "U", "NORAD_CAT_ID": 39109, "ELEMENT_SET_NO": 999, "REV_AT_EPOCH": 65280, "BSTAR": 0.00029802, "MEAN_MOTION_DOT": 1.835e-05, "MEAN_MOTION_DDOT": 0}, "tle": {"line1": "1 39109U 93036BTY 25353.97964329  .00001835  00000+0  29802-3 0  9990", "line2": "2 39109  74.0412 211.0292 0059570 312.7483 114.4468 14.70762004652803"}}, "geometry": {"type": "Point", "coordinates": [146.3951467273675, -72.22988690361306]}}, {"type": "Feature", "properties": {"norad_id": 39110, "name": "COSMOS 2251 DEB", "group": "cosmos-2251-debris", "lat": 34.58921299973563, "lon": -145.49870214616215, "alt_km": 697.2805328549812, "timestamp": "2025-12-20T16:47:36.682866+00:00", "meta": {"OBJECT_NAME": "COSMOS 2251 DEB", "OBJECT_ID": "1993-036BTZ", "EPOCH": "2025-12-17T22:04:59.920608", "MEAN_MOTION": 14.72312711, "ECCENTRICITY": 0.00972569, "INCLINATION": 73.9594, "RA_OF_ASC_NODE": 51.3772, "ARG_OF_PERICENTER": 282.7235, "MEAN_ANOMALY": 255.0933, "EPHEMERIS_TYPE": 0, "CLASSIFICATION_TYPE": "U", "NORAD_CAT_ID": 39110, "ELEMENT_SET_NO": 999, "REV_AT_EPOCH": 62560, "BSTAR": 0.00028872963, "MEAN_MOTION_DOT": 1.929e-05, "MEAN_MOTION_DDOT": 0}, "tle": {"line1": "1 39110U 93036BTZ 25351.92013797  .00001929  00000+0  28873-3 0  9990", "line2": "2 39110  73.9594  51.3772 0097256 282.7235 255.0933 14.72312711625601"}}, "geometry": {"type": "Point", "coordinates": [-145.49870214616215, 34.58921299973563]}}, {"type": "Feature", "properties": {"norad_id": 39111, "name": "COSMOS 2251 DEB", "group": "cosmos-2251-debris", "lat": -33.107789851508876, "lon": -144.64934464988374, "alt_km": 530.2133339969178, "timestamp": "2025-12-20T16:47:36.682876+00:00", "meta": {"OBJECT_NAME": "COSMOS 2251 DEB", "OBJECT_ID": "1993-036BUA", "EPOCH": "2025-12-01T22:58:55.551360", "MEAN_MOTION": 15.11912111, "ECCENTRICITY": 0.00109111, "INCLINATION": 74.0059, "RA_OF_ASC_NODE": 63.5328, "ARG_OF_PERICENTER": 39.1207, "MEAN_ANOMALY": 321.0773, "EPHEMERIS_TYPE": 0, "CLASSIFICATION_TYPE": "U", "NORAD_CAT_ID": 39111, "ELEMENT_SET_NO": 999, "REV_AT_EPOCH": 8982, "BSTAR": 0.0056424119, "MEAN_MOTION_DOT": 0.00098096, "MEAN_MOTION_DDOT": 0}, "tle": {"line1": "1 39111U 93036BUA 25335.95758740  .00098096  00000+0  56424-2 0  9993", "line2": "2 39111  74.0059  63.5328 0010911  39.1207 321.0773 15.11912111 89826"}}, "geometry": {"type": "Point", "coordinates": [-144.64934464988374, -33.107789851508876]}}]}